     2.11           N: GPS NAV DATA                         RINEX VERSION / TYPE
teqc  2019Feb25                         20221121 12:28:28UTCPGM / RUN BY / DATE
OSX ker:10.11.6|Core i5|gcc 4.3 -m64|OSX ker:10.10+|=+      COMMENT
    1.1176D-08  0.0000D+00 -5.9605D-08  0.0000D+00          ION ALPHA
    9.0112D+04  0.0000D+00 -1.9661D+05  0.0000D+00          ION BETA
    0.000000000000D+00-1.243449787580D-14   147456     1554 DELTA-UTC: A0,A1,T,W
                                                            END OF HEADER
14 09 10 18 10  0  0.0-3.614835441113D-05 5.002220859751D-12 0.000000000000D+00
    5.200000000000D+01-1.265625000000D+02 4.070883854367D-09-1.445008053060D+00
   -6.427988409996D-06 5.033538793214D-03 5.548819899559D-06 5.153660152435D+03
    3.600000000000D+04 1.452863216400D-07-8.901212170073D-01 5.587935447693D-08
    9.875993692493D-01 2.848437500000D+02-2.138061268205D+00-7.972117784991D-09
   -3.228705917133D-10 1.000000000000D+00 1.554000000000D+03 0.000000000000D+00
    2.000000000000D+00 0.000000000000D+00-8.847564458847D-09 5.200000000000D+01
    2.881800000000D+04 4.000000000000D+00
31 09 10 18 10  0  0.0-6.272550672293D-05 6.821210263297D-13 0.000000000000D+00
    9.300000000000D+01-4.368750000000D+01 4.030525030403D-09 2.402762377909D+00
   -2.088025212288D-06 7.220304221846D-03 1.240894198418D-05 5.153541219711D+03
    3.600000000000D+04 1.620501279831D-07 1.146493477655D-01-4.284083843231D-08
    9.748396251376D-01 1.451875000000D+02-1.148470928893D+00-7.549957343171D-09
    2.475103097979D-10 1.000000000000D+00 1.554000000000D+03 0.000000000000D+00
    2.800000000000D+00 0.000000000000D+00-1.303851604462D-08 9.300000000000D+01
    2.968800000000D+04 4.000000000000D+00
20 09 10 18 10  0  0.0 6.971089169383D-05-9.094947017729D-13 0.000000000000D+00
    8.300000000000D+01 8.018750000000D+01 5.192001982008D-09 5.839978949536D-01
    3.991648554802D-06 3.894000663422D-03 2.056360244751D-06 5.153757476807D+03
    3.600000000000D+04-2.980232238770D-08-2.006731446157D+00 3.352761268616D-08
    9.398666359379D-01 3.268125000000D+02 1.303172707608D+00-8.794652046844D-09
    3.046555472693D-10 1.000000000000D+00 1.554000000000D+03 0.000000000000D+00
    2.000000000000D+00 0.000000000000D+00-7.450580596924D-09 8.300000000000D+01
    3.028800000000D+04 4.000000000000D+00
